[{"OBJECT_NAME":"STARLINK-5611","OBJECT_ID":"2023-028W","EPOCH":"2026-03-09T20:34:28.656768","MEAN_MOTION":14.98332841,"ECCENTRICITY":0.00031081,"INCLINATION":69.9998,"RA_OF_ASC_NODE":224.2157,"ARG_OF_PERICENTER":273.175,"MEAN_ANOMALY":86.9054,"EPHEMERIS_TYPE":0,"CLASSIFICATION_TYPE":"U","NORAD_CAT_ID":55761,"ELEMENT_SET_NO":999,"REV_AT_EPOCH":16655,"BSTAR":4.0943828e-5,"MEAN_MOTION_DOT":3.96e-6,"MEAN_MOTION_DDOT":0},{"OBJECT_NAME":"HINCUBE","OBJECT_ID":"2013-066AF","EPOCH":"2026-03-09T20:37:05.272320","MEAN_MOTION":15.06793635,"ECCENTRICITY":0.00336438,"INCLINATION":97.7872,"RA_OF_ASC_NODE":36.0584,"ARG_OF_PERICENTER":185.5277,"MEAN_ANOMALY":174.5583,"EPHEMERIS_TYPE":0,"CLASSIFICATION_TYPE":"U","NORAD_CAT_ID":39445,"ELEMENT_SET_NO":999,"REV_AT_EPOCH":66456,"BSTAR":0.00067193541,"MEAN_MOTION_DOT":0.00010075,"MEAN_MOTION_DDOT":0}]
